[{"OBJECT_NAME":"SAUDISAT 5B","OBJECT_ID":"2018-102C","EPOCH":"2026-03-09T22:59:17.457216","MEAN_MOTION":15.27248504,"ECCENTRICITY":0.00120577,"INCLINATION":97.3281,"RA_OF_ASC_NODE":135.3629,"ARG_OF_PERICENTER":124.0958,"MEAN_ANOMALY":236.1427,"EPHEMERIS_TYPE":0,"CLASSIFICATION_TYPE":"U","NORAD_CAT_ID":43833,"ELEMENT_SET_NO":999,"REV_AT_EPOCH":40064,"BSTAR":0.00024926623,"MEAN_MOTION_DOT":6.596e-5,"MEAN_MOTION_DDOT":0},{"OBJECT_NAME":"STARLINK-31333","OBJECT_ID":"2024-031G","EPOCH":"2026-03-09T21:51:57.017376","MEAN_MOTION":15.30187396,"ECCENTRICITY":0.0001203,"INCLINATION":53.1602,"RA_OF_ASC_NODE":283.1263,"ARG_OF_PERICENTER":94.6015,"MEAN_ANOMALY":265.5123,"EPHEMERIS_TYPE":0,"CLASSIFICATION_TYPE":"U","NORAD_CAT_ID":58971,"ELEMENT_SET_NO":999,"REV_AT_EPOCH":11674,"BSTAR":3.3785447e-5,"MEAN_MOTION_DOT":6.41e-6,"MEAN_MOTION_DDOT":0}]
